CCSDS_OMM_VERS = 2.0
CREATION_DATE  = 
ORIGINATOR     = 

OBJECT_NAME    = STARLINK-36315
OBJECT_ID      = 2026-026L
CENTER_NAME    = EARTH
REF_FRAME      = TEME
TIME_SYSTEM    = UTC
MEAN_ELEMENT_THEORY = SGP/SGP4

EPOCH          = 2026-03-02T14:04:22.914912
MEAN_MOTION    = 15.78832116
ECCENTRICITY   = .00004222
INCLINATION    = 97.2855
RA_OF_ASC_NODE = 115.9250
ARG_OF_PERICENTER = 135.1307
MEAN_ANOMALY   = 224.9994

EPHEMERIS_TYPE = 0
CLASSIFICATION_TYPE = U
NORAD_CAT_ID   = 67731
ELEMENT_SET_NO = 999
REV_AT_EPOCH   = 301
BSTAR          = -.42877242E-2
MEAN_MOTION_DOT = -.693515E-2
MEAN_MOTION_DDOT = 0

CCSDS_OMM_VERS = 2.0
CREATION_DATE  = 
ORIGINATOR     = 

OBJECT_NAME    = STARLINK-36260
OBJECT_ID      = 2026-026M
CENTER_NAME    = EARTH
REF_FRAME      = TEME
TIME_SYSTEM    = UTC
MEAN_ELEMENT_THEORY = SGP/SGP4

EPOCH          = 2026-03-02T14:02:30.048864
MEAN_MOTION    = 15.79120924
ECCENTRICITY   = .00020982
INCLINATION    = 97.2855
RA_OF_ASC_NODE = 115.9263
ARG_OF_PERICENTER = 53.9200
MEAN_ANOMALY   = 306.2262

EPHEMERIS_TYPE = 0
CLASSIFICATION_TYPE = U
NORAD_CAT_ID   = 67732
ELEMENT_SET_NO = 999
REV_AT_EPOCH   = 301
BSTAR          = -.47151439E-2
MEAN_MOTION_DOT = -.766631E-2
MEAN_MOTION_DDOT = 0

CCSDS_OMM_VERS = 2.0
CREATION_DATE  = 
ORIGINATOR     = 

OBJECT_NAME    = STARLINK-36746
OBJECT_ID      = 2026-026N
CENTER_NAME    = EARTH
REF_FRAME      = TEME
TIME_SYSTEM    = UTC
MEAN_ELEMENT_THEORY = SGP/SGP4

EPOCH          = 2026-03-02T14:00:01.999872
MEAN_MOTION    = 15.58504276
ECCENTRICITY   = .00017641
INCLINATION    = 97.2839
RA_OF_ASC_NODE = 115.8436
ARG_OF_PERICENTER = 69.2596
MEAN_ANOMALY   = 75.9540

EPHEMERIS_TYPE = 0
CLASSIFICATION_TYPE = U
NORAD_CAT_ID   = 67733
ELEMENT_SET_NO = 999
REV_AT_EPOCH   = 417
BSTAR          = -.26927543E-1
MEAN_MOTION_DOT = -.1824623E-1
MEAN_MOTION_DDOT = 0

CCSDS_OMM_VERS = 2.0
CREATION_DATE  = 
ORIGINATOR     = 

OBJECT_NAME    = STARLINK-36749
OBJECT_ID      = 2026-026P
CENTER_NAME    = EARTH
REF_FRAME      = TEME
TIME_SYSTEM    = UTC
MEAN_ELEMENT_THEORY = SGP/SGP4

EPOCH          = 2026-03-02T14:00:01.999872
MEAN_MOTION    = 15.72436392
ECCENTRICITY   = .00012712
INCLINATION    = 97.2844
RA_OF_ASC_NODE = 115.9205
ARG_OF_PERICENTER = 83.4927
MEAN_ANOMALY   = 250.5001

EPHEMERIS_TYPE = 0
CLASSIFICATION_TYPE = U
NORAD_CAT_ID   = 67734
ELEMENT_SET_NO = 999
REV_AT_EPOCH   = 417
BSTAR          = -.16552836E-1
MEAN_MOTION_DOT = -.1907888E-1
MEAN_MOTION_DDOT = 0

CCSDS_OMM_VERS = 2.0
CREATION_DATE  = 
ORIGINATOR     = 

OBJECT_NAME    = STARLINK-36691
OBJECT_ID      = 2026-026Q
CENTER_NAME    = EARTH
REF_FRAME      = TEME
TIME_SYSTEM    = UTC
MEAN_ELEMENT_THEORY = SGP/SGP4

EPOCH          = 2026-03-02T15:25:31.629216
MEAN_MOTION    = 15.79688374
ECCENTRICITY   = .00013131
INCLINATION    = 97.2864
RA_OF_ASC_NODE = 115.9984
ARG_OF_PERICENTER = 78.4182
MEAN_ANOMALY   = 281.7233

EPHEMERIS_TYPE = 0
CLASSIFICATION_TYPE = U
NORAD_CAT_ID   = 67735
ELEMENT_SET_NO = 999
REV_AT_EPOCH   = 302
BSTAR          = -.50841859E-2
MEAN_MOTION_DOT = -.840683E-2
MEAN_MOTION_DDOT = 0

CCSDS_OMM_VERS = 2.0
CREATION_DATE  = 
ORIGINATOR     = 

OBJECT_NAME    = STARLINK-36317
OBJECT_ID      = 2026-026R
CENTER_NAME    = EARTH
REF_FRAME      = TEME
TIME_SYSTEM    = UTC
MEAN_ELEMENT_THEORY = SGP/SGP4

EPOCH          = 2026-03-02T15:28:00.643296
MEAN_MOTION    = 15.79555938
ECCENTRICITY   = .00006001
INCLINATION    = 97.2866
RA_OF_ASC_NODE = 115.9958
ARG_OF_PERICENTER = 75.3758
MEAN_ANOMALY   = 284.7576

EPHEMERIS_TYPE = 0
CLASSIFICATION_TYPE = U
NORAD_CAT_ID   = 67736
ELEMENT_SET_NO = 999
REV_AT_EPOCH   = 302
BSTAR          = -.37881055E-2
MEAN_MOTION_DOT = -.637257E-2
MEAN_MOTION_DDOT = 0

CCSDS_OMM_VERS = 2.0
CREATION_DATE  = 
ORIGINATOR     = 

OBJECT_NAME    = STARLINK-36330
OBJECT_ID      = 2026-026S
CENTER_NAME    = EARTH
REF_FRAME      = TEME
TIME_SYSTEM    = UTC
MEAN_ELEMENT_THEORY = SGP/SGP4

EPOCH          = 2026-03-02T15:23:54.893184
MEAN_MOTION    = 15.79801124
ECCENTRICITY   = .00007012
INCLINATION    = 97.2864
RA_OF_ASC_NODE = 115.9995
ARG_OF_PERICENTER = 56.4811
MEAN_ANOMALY   = 303.6524

EPHEMERIS_TYPE = 0
CLASSIFICATION_TYPE = U
NORAD_CAT_ID   = 67737
ELEMENT_SET_NO = 999
REV_AT_EPOCH   = 302
BSTAR          = -.47267018E-2
MEAN_MOTION_DOT = -.790059E-2
MEAN_MOTION_DDOT = 0

CCSDS_OMM_VERS = 2.0
CREATION_DATE  = 
ORIGINATOR     = 

OBJECT_NAME    = STARLINK-36327
OBJECT_ID      = 2026-026T
CENTER_NAME    = EARTH
REF_FRAME      = TEME
TIME_SYSTEM    = UTC
MEAN_ELEMENT_THEORY = SGP/SGP4

EPOCH          = 2026-03-02T15:21:48.248928
MEAN_MOTION    = 15.80097493
ECCENTRICITY   = .00011031
INCLINATION    = 97.2867
RA_OF_ASC_NODE = 116.0015
ARG_OF_PERICENTER = 177.6783
MEAN_ANOMALY   = 182.4490

EPHEMERIS_TYPE = 0
CLASSIFICATION_TYPE = U
NORAD_CAT_ID   = 67738
ELEMENT_SET_NO = 999
REV_AT_EPOCH   = 302
BSTAR          = -.39446489E-2
MEAN_MOTION_DOT = -.677162E-2
MEAN_MOTION_DDOT = 0

CCSDS_OMM_VERS = 2.0
CREATION_DATE  = 
ORIGINATOR     = 

OBJECT_NAME    = STARLINK-36329
OBJECT_ID      = 2026-026U
CENTER_NAME    = EARTH
REF_FRAME      = TEME
TIME_SYSTEM    = UTC
MEAN_ELEMENT_THEORY = SGP/SGP4

EPOCH          = 2026-03-02T15:09:29.787264
MEAN_MOTION    = 15.80855811
ECCENTRICITY   = .00021363
INCLINATION    = 97.2873
RA_OF_ASC_NODE = 116.0097
ARG_OF_PERICENTER = 79.4052
MEAN_ANOMALY   = 280.7457

EPHEMERIS_TYPE = 0
CLASSIFICATION_TYPE = U
NORAD_CAT_ID   = 67739
ELEMENT_SET_NO = 999
REV_AT_EPOCH   = 302
BSTAR          = .10901204E-2
MEAN_MOTION_DOT = .214274E-2
MEAN_MOTION_DDOT = 0

CCSDS_OMM_VERS = 2.0
CREATION_DATE  = 
ORIGINATOR     = 

OBJECT_NAME    = STARLINK-36737
OBJECT_ID      = 2026-026V
CENTER_NAME    = EARTH
REF_FRAME      = TEME
TIME_SYSTEM    = UTC
MEAN_ELEMENT_THEORY = SGP/SGP4

EPOCH          = 2026-03-02T15:19:33.224736
MEAN_MOTION    = 15.80403007
ECCENTRICITY   = .00003926
INCLINATION    = 97.2866
RA_OF_ASC_NODE = 116.0024
ARG_OF_PERICENTER = 104.3265
MEAN_ANOMALY   = 255.8047

EPHEMERIS_TYPE = 0
CLASSIFICATION_TYPE = U
NORAD_CAT_ID   = 67740
ELEMENT_SET_NO = 999
REV_AT_EPOCH   = 302
BSTAR          = -.11979482E-2
MEAN_MOTION_DOT = -.219718E-2
MEAN_MOTION_DDOT = 0

CCSDS_OMM_VERS = 2.0
CREATION_DATE  = 
ORIGINATOR     = 

OBJECT_NAME    = STARLINK-36740
OBJECT_ID      = 2026-026W
CENTER_NAME    = EARTH
REF_FRAME      = TEME
TIME_SYSTEM    = UTC
MEAN_ELEMENT_THEORY = SGP/SGP4

EPOCH          = 2026-03-02T14:00:01.999872
MEAN_MOTION    = 15.75801184
ECCENTRICITY   = .00014608
INCLINATION    = 97.2855
RA_OF_ASC_NODE = 115.9534
ARG_OF_PERICENTER = 69.7590
MEAN_ANOMALY   = 354.9866

EPHEMERIS_TYPE = 0
CLASSIFICATION_TYPE = U
NORAD_CAT_ID   = 67741
ELEMENT_SET_NO = 999
REV_AT_EPOCH   = 417
BSTAR          = -.1394431E-1
MEAN_MOTION_DOT = -.1866407E-1
MEAN_MOTION_DDOT = 0

CCSDS_OMM_VERS = 2.0
CREATION_DATE  = 
ORIGINATOR     = 

OBJECT_NAME    = STARLINK-36693
OBJECT_ID      = 2026-026X
CENTER_NAME    = EARTH
REF_FRAME      = TEME
TIME_SYSTEM    = UTC
MEAN_ELEMENT_THEORY = SGP/SGP4

EPOCH          = 2026-03-02T14:00:01.999872
MEAN_MOTION    = 15.76466431
ECCENTRICITY   = .00013057
INCLINATION    = 97.2855
RA_OF_ASC_NODE = 115.9460
ARG_OF_PERICENTER = 80.5057
MEAN_ANOMALY   = 324.5817

EPHEMERIS_TYPE = 0
CLASSIFICATION_TYPE = U
NORAD_CAT_ID   = 67742
ELEMENT_SET_NO = 999
REV_AT_EPOCH   = 430
BSTAR          = -.13496984E-1
MEAN_MOTION_DOT = -.186109E-1
MEAN_MOTION_DDOT = 0

