STARLINK-36315          
1 67731U 26026L   26061.58637633 -.00693515  00000+0 -42877-2 0  9996
2 67731  97.2855 115.9250 0000422 135.1307 224.9994 15.78832116  3018
STARLINK-36260          
1 67732U 26026M   26061.58507001 -.00766631  00000+0 -47151-2 0  9992
2 67732  97.2855 115.9263 0002098  53.9200 306.2262 15.79120924  3013
STARLINK-36746          
1 67733U 26026N   26061.58335648 -.01824623  00000+0 -26928-1 0  9994
2 67733  97.2839 115.8436 0001764  69.2596  75.9540 15.58504276  4174
STARLINK-36749          
1 67734U 26026P   26061.58335648 -.01907888  00000+0 -16553-1 0  9993
2 67734  97.2844 115.9205 0001271  83.4927 250.5001 15.72436392  4177
STARLINK-36691          
1 67735U 26026Q   26061.64272719 -.00840683  00000+0 -50842-2 0  9998
2 67735  97.2864 115.9984 0001313  78.4182 281.7233 15.79688374  3020
STARLINK-36317          
1 67736U 26026R   26061.64445189 -.00637257  00000+0 -37881-2 0  9991
2 67736  97.2866 115.9958 0000600  75.3758 284.7576 15.79555938  3029
STARLINK-36330          
1 67737U 26026S   26061.64160756 -.00790059  00000+0 -47267-2 0  9995
2 67737  97.2864 115.9995 0000701  56.4811 303.6524 15.79801124  3026
STARLINK-36327          
1 67738U 26026T   26061.64014177 -.00677162  00000+0 -39446-2 0  9990
2 67738  97.2867 116.0015 0001103 177.6783 182.4490 15.80097493  3029
STARLINK-36329          
1 67739U 26026U   26061.63159476  .00214274  00000+0  10901-2 0  9996
2 67739  97.2873 116.0097 0002136  79.4052 280.7457 15.80855811  3023
STARLINK-36737          
1 67740U 26026V   26061.63857899 -.00219718  00000+0 -11979-2 0  9998
2 67740  97.2866 116.0024 0000392 104.3265 255.8047 15.80403007  3027
STARLINK-36740          
1 67741U 26026W   26061.58335648 -.01866407  00000+0 -13944-1 0  9993
2 67741  97.2855 115.9534 0001460  69.7590 354.9866 15.75801184  4171
STARLINK-36693          
1 67742U 26026X   26061.58335648 -.01861090  00000+0 -13497-1 0  9990
2 67742  97.2855 115.9460 0001305  80.5057 324.5817 15.76466431  4304
